STARLINK-34214          
1 64190U 25113W   26068.50124423  .00027751  00000+0  94523-3 0  9992
2 64190  53.1591  92.1900 0001436  54.1320 305.9814 15.30212674 45039
2025-313BE              
1 67482U 25313BE  26068.69721505  .00077178  00000+0  26504-2 0  9996
2 67482  97.3989 145.3568 0007208 335.3714  24.7181 15.29801687  7972
